{
  "type": "FeatureCollection",
  "features": [
    {
      "type": "Feature",
      "properties": {
        "norad_id": 29816,
        "name": "FENGYUN 1C DEB",
        "group": "fengyun-1c-debris",
        "lat": -55.53880634342274,
        "lon": -124.06080927048548,
        "alt_km": 918.2932539037429,
        "timestamp": "2025-12-27T17:24:57.676792+00:00",
        "meta_object_name": "FENGYUN 1C DEB",
        "meta_object_id": "1999-025DJ",
        "meta_epoch": "2025-12-27T04:56:29.251104",
        "meta_mean_motion": 14.44418564,
        "meta_eccentricity": 0.02380437,
        "meta_inclination": 98.9924,
        "meta_ra_of_asc_node": 222.0487,
        "meta_arg_of_pericenter": 134.0609,
        "meta_mean_anomaly": 347.7488,
        "meta_ephemeris_type": 0,
        "meta_classification_type": "U",
        "meta_norad_cat_id": 29816,
        "meta_element_set_no": 999,
        "meta_rev_at_epoch": 98396,
        "meta_bstar": 0.00086452407,
        "meta_mean_motion_dot": 4.163e-05,
        "meta_mean_motion_ddot": 0,
        "tle_line1": "1 29816U 99025DJ  25361.20589411  .00004163  00000+0  86452-3 0  9999",
        "tle_line2": "2 29816  98.9924 222.0487 0238043 134.0609 347.7488 14.44418564983964"
      },
      "geometry": {
        "type": "Point",
        "coordinates": [
          -124.06080927048548,
          -55.53880634342274
        ]
      }
    },
    {
      "type": "Feature",
      "properties": {
        "norad_id": 29817,
        "name": "FENGYUN 1C DEB",
        "group": "fengyun-1c-debris",
        "lat": 59.372858807453866,
        "lon": -24.440340539730983,
        "alt_km": 838.7055467257242,
        "timestamp": "2025-12-27T17:24:57.676802+00:00",
        "meta_object_name": "FENGYUN 1C DEB",
        "meta_object_id": "1999-025DK",
        "meta_epoch": "2025-12-27T12:34:48.389952",
        "meta_mean_motion": 14.14271806,
        "meta_eccentricity": 0.0011483,
        "meta_inclination": 98.5587,
        "meta_ra_of_asc_node": 350.1026,
        "meta_arg_of_pericenter": 333.1456,
        "meta_mean_anomaly": 141.941,
        "meta_ephemeris_type": 0,
        "meta_classification_type": "U",
        "meta_norad_cat_id": 29817,
        "meta_element_set_no": 999,
        "meta_rev_at_epoch": 97604,
        "meta_bstar": 0.00039118,
        "meta_mean_motion_dot": 7.06e-06,
        "meta_mean_motion_ddot": 0,
        "tle_line1": "1 29817U 99025DK  25361.52417118  .00000706  00000+0  39118-3 0  9995",
        "tle_line2": "2 29817  98.5587 350.1026 0011483 333.1456 141.9410 14.14271806976040"
      },
      "geometry": {
        "type": "Point",
        "coordinates": [
          -24.440340539730983,
          59.372858807453866
        ]
      }
    },
    {
      "type": "Feature",
      "properties": {
        "norad_id": 29818,
        "name": "FENGYUN 1C DEB",
        "group": "fengyun-1c-debris",
        "lat": -9.785352724084696,
        "lon": -120.0273686976849,
        "alt_km": 799.6737715023055,
        "timestamp": "2025-12-27T17:24:57.676813+00:00",
        "meta_object_name": "FENGYUN 1C DEB",
        "meta_object_id": "1999-025DL",
        "meta_epoch": "2025-12-27T12:39:52.282080",
        "meta_mean_motion": 14.04514472,
        "meta_eccentricity": 0.011451,
        "meta_inclination": 98.7205,
        "meta_ra_of_asc_node": 238.2656,
        "meta_arg_of_pericenter": 344.4036,
        "meta_mean_anomaly": 85.1923,
        "meta_ephemeris_type": 0,
        "meta_classification_type": "U",
        "meta_norad_cat_id": 29818,
        "meta_element_set_no": 999,
        "meta_rev_at_epoch": 97017,
        "meta_bstar": 0.00035616,
        "meta_mean_motion_dot": 5.6e-06,
        "meta_mean_motion_ddot": 0,
        "tle_line1": "1 29818U 99025DL  25361.52768845  .00000560  00000+0  35616-3 0  9999",
        "tle_line2": "2 29818  98.7205 238.2656 0114510 344.4036  85.1923 14.04514472970173"
      },
      "geometry": {
        "type": "Point",
        "coordinates": [
          -120.0273686976849,
          -9.785352724084696
        ]
      }
    },
    {
      "type": "Feature",
      "properties": {
        "norad_id": 29819,
        "name": "FENGYUN 1C DEB",
        "group": "fengyun-1c-debris",
        "lat": -22.962936301797814,
        "lon": -11.414684115924855,
        "alt_km": 797.7247544295542,
        "timestamp": "2025-12-27T17:24:57.676823+00:00",
        "meta_object_name": "FENGYUN 1C DEB",
        "meta_object_id": "1999-025DM",
        "meta_epoch": "2025-12-27T11:15:02.045952",
        "meta_mean_motion": 14.02218668,
        "meta_eccentricity": 0.0191515,
        "meta_inclination": 98.7348,
        "meta_ra_of_asc_node": 344.604,
        "meta_arg_of_pericenter": 26.0445,
        "meta_mean_anomaly": 96.3679,
        "meta_ephemeris_type": 0,
        "meta_classification_type": "U",
        "meta_norad_cat_id": 29819,
        "meta_element_set_no": 999,
        "meta_rev_at_epoch": 96826,
        "meta_bstar": 0.00039648,
        "meta_mean_motion_dot": 6.71e-06,
        "meta_mean_motion_ddot": 0,
        "tle_line1": "1 29819U 99025DM  25361.46877368  .00000671  00000+0  39648-3 0  9996",
        "tle_line2": "2 29819  98.7348 344.6040 0191515  26.0445  96.3679 14.02218668968263"
      },
      "geometry": {
        "type": "Point",
        "coordinates": [
          -11.414684115924855,
          -22.962936301797814
        ]
      }
    },
    {
      "type": "Feature",
      "properties": {
        "norad_id": 29820,
        "name": "FENGYUN 1C DEB",
        "group": "fengyun-1c-debris",
        "lat": -19.676315815666044,
        "lon": 11.511058101554491,
        "alt_km": 932.4632025743804,
        "timestamp": "2025-12-27T17:24:57.676833+00:00",
        "meta_object_name": "FENGYUN 1C DEB",
        "meta_object_id": "1999-025DN",
        "meta_epoch": "2025-12-27T11:26:54.534048",
        "meta_mean_motion": 14.02636318,
        "meta_eccentricity": 0.0072452,
        "meta_inclination": 98.8332,
        "meta_ra_of_asc_node": 8.0824,
        "meta_arg_of_pericenter": 196.3767,
        "meta_mean_anomaly": 328.4795,
        "meta_ephemeris_type": 0,
        "meta_classification_type": "U",
        "meta_norad_cat_id": 29820,
        "meta_element_set_no": 999,
        "meta_rev_at_epoch": 96766,
        "meta_bstar": 0.00067392,
        "meta_mean_motion_dot": 1.021e-05,
        "meta_mean_motion_ddot": 0,
        "tle_line1": "1 29820U 99025DN  25361.47702007  .00001021  00000+0  67392-3 0  9993",
        "tle_line2": "2 29820  98.8332   8.0824 0072452 196.3767 328.4795 14.02636318967663"
      },
      "geometry": {
        "type": "Point",
        "coordinates": [
          11.511058101554491,
          -19.676315815666044
        ]
      }
    },
    {
      "type": "Feature",
      "properties": {
        "norad_id": 29821,
        "name": "FENGYUN 1C DEB",
        "group": "fengyun-1c-debris",
        "lat": 50.05419288188005,
        "lon": -112.67478890816798,
        "alt_km": 672.544375003491,
        "timestamp": "2025-12-27T17:24:57.676843+00:00",
        "meta_object_name": "FENGYUN 1C DEB",
        "meta_object_id": "1999-025DP",
        "meta_epoch": "2025-12-27T03:28:34.047264",
        "meta_mean_motion": 14.11127532,
        "meta_eccentricity": 0.03761083,
        "meta_inclination": 98.8715,
        "meta_ra_of_asc_node": 56.0018,
        "meta_arg_of_pericenter": 79.9843,
        "meta_mean_anomaly": 336.7769,
        "meta_ephemeris_type": 0,
        "meta_classification_type": "U",
        "meta_norad_cat_id": 29821,
        "meta_element_set_no": 999,
        "meta_rev_at_epoch": 96714,
        "meta_bstar": 0.00056237845,
        "meta_mean_motion_dot": 1.926e-05,
        "meta_mean_motion_ddot": 0,
        "tle_line1": "1 29821U 99025DP  25361.14483851  .00001926  00000+0  56238-3 0  9992",
        "tle_line2": "2 29821  98.8715  56.0018 0376108  79.9843 336.7769 14.11127532967142"
      },
      "geometry": {
        "type": "Point",
        "coordinates": [
          -112.67478890816798,
          50.05419288188005
        ]
      }
    },
    {
      "type": "Feature",
      "properties": {
        "norad_id": 29827,
        "name": "FENGYUN 1C DEB",
        "group": "fengyun-1c-debris",
        "lat": -39.78114301977322,
        "lon": -0.21120565530212862,
        "alt_km": 812.9237798190497,
        "timestamp": "2025-12-27T17:24:57.676854+00:00",
        "meta_object_name": "FENGYUN 1C DEB",
        "meta_object_id": "1999-025DV",
        "meta_epoch": "2025-12-27T05:52:42.147264",
        "meta_mean_motion": 14.21708963,
        "meta_eccentricity": 0.0024551,
        "meta_inclination": 98.6038,
        "meta_ra_of_asc_node": 352.0783,
        "meta_arg_of_pericenter": 278.9501,
        "meta_mean_anomaly": 101.5458,
        "meta_ephemeris_type": 0,
        "meta_classification_type": "U",
        "meta_norad_cat_id": 29827,
        "meta_element_set_no": 999,
        "meta_rev_at_epoch": 98069,
        "meta_bstar": 0.00036492,
        "meta_mean_motion_dot": 7.61e-06,
        "meta_mean_motion_ddot": 0,
        "tle_line1": "1 29827U 99025DV  25361.24493226  .00000761  00000+0  36492-3 0  9992",
        "tle_line2": "2 29827  98.6038 352.0783 0024551 278.9501 101.5458 14.21708963980698"
      },
      "geometry": {
        "type": "Point",
        "coordinates": [
          -0.21120565530212862,
          -39.78114301977322
        ]
      }
    }
  ]
}